{"fetched_at":"2026-03-29T16:36:15Z","count":15609,"tles":[{"name":"STARLINK-11732 [DTC]","line1":"1 64370U 25127A   26087.71352191  .00219485  00000+0  16626-2 0  9990","line2":"2 64370  42.9994 329.9304 0001507 257.8237 102.2462 15.70934864 46493","category":"Starlink"}]}